start=new Date('2023-03-04T00:00:00.000Z').valueOf();
sats=[{"OBJECT_ID":"2022-111Q","CENTER_NAME":"EARTH","MEAN_MOTION_DOT":"0.00036996","BSTAR":"0.00232670000000","MEAN_ELEMENT_THEORY":"SGP4","SITE":"AFETR","ELEMENT_SET_NO":"999","ARG_OF_PERICENTER":"110.3156","MEAN_MOTION":"15.08898882","PERIAPSIS":"538.320","NORAD_CAT_ID":"53787","SEMIMAJOR_AXIS":"6917.700","EPOCH":"2023-03-03T19:41:50.075808","GP_ID":"227436484","REF_FRAME":"TEME","EPHEMERIS_TYPE":"0","PERIOD":"95.434","APOAPSIS":"540.811","LAUNCH_DATE":"2022-09-11","MEAN_MOTION_DDOT":"0.0000000000000","CLASSIFICATION_TYPE":"U","TIME_SYSTEM":"UTC","OBJECT_TYPE":"PAYLOAD","ECCENTRICITY":"0.00018000","DECAY_DATE":null,"TLE_LINE1":"1 53787U 22111Q   23062.82071847  .00036996  00000-0  23267-2 0  9992","INCLINATION":"53.2160","COUNTRY_CODE":"US","RA_OF_ASC_NODE":"180.4358","MEAN_ANOMALY":"249.8030","REV_AT_EPOCH":"2735","RCS_SIZE":"LARGE","TLE_LINE2":"2 53787  53.2160 180.4358 0001800 110.3156 249.8030 15.08898882 27354","FILE":"3850400","OBJECT_NAME":"STARLINK-4743"},{"MEAN_ANOMALY":"261.4915","RA_OF_ASC_NODE":"180.3695","COUNTRY_CODE":"US","OBJECT_NAME":"STARLINK-4666","FILE":"3850400","RCS_SIZE":"LARGE","TLE_LINE2":"2 53789  53.2165 180.3695 0002033  98.6307 261.4915 15.08846232 27342","REV_AT_EPOCH":"2734","OBJECT_TYPE":"PAYLOAD","TIME_SYSTEM":"UTC","CLASSIFICATION_TYPE":"U","MEAN_MOTION_DDOT":"0.0000000000000","INCLINATION":"53.2165","TLE_LINE1":"1 53789U 22111S   23062.80970118  .00068445  00000-0  42764-2 0  9998","DECAY_DATE":null,"ECCENTRICITY":"0.00020330","GP_ID":"227437236","EPOCH":"2023-03-03T19:25:58.181952","SEMIMAJOR_AXIS":"6917.861","NORAD_CAT_ID":"53789","PERIAPSIS":"538.320","LAUNCH_DATE":"2022-09-11","APOAPSIS":"541.133","PERIOD":"95.437","EPHEMERIS_TYPE":"0","REF_FRAME":"TEME","SITE":"AFETR","BSTAR":"0.00427640000000","MEAN_ELEMENT_THEORY":"SGP4","MEAN_MOTION_DOT":"0.00068445","CENTER_NAME":"EARTH","OBJECT_ID":"2022-111S","MEAN_MOTION":"15.08846232","ARG_OF_PERICENTER":"98.6307","ELEMENT_SET_NO":"999"},{"PERIAPSIS":"538.572","NORAD_CAT_ID":"53790","SEMIMAJOR_AXIS":"6917.817","EPOCH":"2023-03-03T16:36:21.733344","GP_ID":"227436987","REF_FRAME":"TEME","EPHEMERIS_TYPE":"0","APOAPSIS":"540.793","PERIOD":"95.436","LAUNCH_DATE":"2022-09-11","OBJECT_ID":"2022-111T","CENTER_NAME":"EARTH","MEAN_MOTION_DOT":"0.00003639","MEAN_ELEMENT_THEORY":"SGP4","BSTAR":"0.00024647000000","SITE":"AFETR","ELEMENT_SET_NO":"999","ARG_OF_PERICENTER":"111.1721","MEAN_MOTION":"15.08860593","COUNTRY_CODE":"US","RA_OF_ASC_NODE":"181.0618","MEAN_ANOMALY":"248.9443","REV_AT_EPOCH":"2733","TLE_LINE2":"2 53790  53.2199 181.0618 0001605 111.1721 248.9443 15.08860593 27330","RCS_SIZE":"LARGE","FILE":"3850400","OBJECT_NAME":"STARLINK-4734","MEAN_MOTION_DDOT":"0.0000000000000","CLASSIFICATION_TYPE":"U","TIME_SYSTEM":"UTC","OBJECT_TYPE":"PAYLOAD","ECCENTRICITY":"0.00016050","DECAY_DATE":null,"INCLINATION":"53.2199","TLE_LINE1":"1 53790U 22111T   23062.69191821  .00003639  00000-0  24647-3 0  9998"},{"COUNTRY_CODE":"US","RA_OF_ASC_NODE":"180.7164","MEAN_ANOMALY":"291.2060","TLE_LINE2":"2 53792  53.2187 180.7164 0001223  68.9063 291.2060 15.08866259 27336","RCS_SIZE":"LARGE","FILE":"3850400","OBJECT_NAME":"STARLINK-4739","REV_AT_EPOCH":"2733","TIME_SYSTEM":"UTC","OBJECT_TYPE":"PAYLOAD","MEAN_MOTION_DDOT":"0.0000000000000","CLASSIFICATION_TYPE":"U","ECCENTRICITY":"0.00012230","DECAY_DATE":null,"INCLINATION":"53.2187","TLE_LINE1":"1 53792U 22111V   23062.75078185  .00003316  00000-0  22615-3 0  9999","NORAD_CAT_ID":"53792","SEMIMAJOR_AXIS":"6917.800","EPOCH":"2023-03-03T18:01:07.551840","GP_ID":"227435735","PERIAPSIS":"538.819","APOAPSIS":"540.511","PERIOD":"95.436","LAUNCH_DATE":"2022-09-11","REF_FRAME":"TEME","EPHEMERIS_TYPE":"0","SITE":"AFETR","OBJECT_ID":"2022-111V","CENTER_NAME":"EARTH","MEAN_MOTION_DOT":"0.00003316","BSTAR":"0.00022615000000","MEAN_ELEMENT_THEORY":"SGP4","MEAN_MOTION":"15.08866259","ELEMENT_SET_NO":"999","ARG_OF_PERICENTER":"68.9063"},{"MEAN_MOTION":"15.08870545","ARG_OF_PERICENTER":"92.2525","ELEMENT_SET_NO":"999","SITE":"AFETR","BSTAR":"0.00022479000000","MEAN_ELEMENT_THEORY":"SGP4","MEAN_MOTION_DOT":"0.00003294","CENTER_NAME":"EARTH","OBJECT_ID":"2022-111W","LAUNCH_DATE":"2022-09-11","APOAPSIS":"540.588","PERIOD":"95.436","EPHEMERIS_TYPE":"0","REF_FRAME":"TEME","GP_ID":"227435985","EPOCH":"2023-03-03T17:57:12.258720","SEMIMAJOR_AXIS":"6917.787","NORAD_CAT_ID":"53793","PERIAPSIS":"538.716","TLE_LINE1":"1 53793U 22111W   23062.74805855  .00003294  00000-0  22479-3 0  9994","INCLINATION":"53.2197","DECAY_DATE":null,"ECCENTRICITY":"0.00013530","OBJECT_TYPE":"PAYLOAD","TIME_SYSTEM":"UTC","CLASSIFICATION_TYPE":"U","MEAN_MOTION_DDOT":"0.0000000000000","FILE":"3850400","OBJECT_NAME":"STARLINK-4728","TLE_LINE2":"2 53793  53.2197 180.6973 0001353  92.2525 267.8622 15.08870545 27338","RCS_SIZE":"LARGE","REV_AT_EPOCH":"2733","MEAN_ANOMALY":"267.8622","RA_OF_ASC_NODE":"180.6973","COUNTRY_CODE":"US"},{"PERIAPSIS":"538.698","GP_ID":"227436737","EPOCH":"2023-03-03T19:31:13.614528","SEMIMAJOR_AXIS":"6917.756","NORAD_CAT_ID":"53794","EPHEMERIS_TYPE":"0","REF_FRAME":"TEME","LAUNCH_DATE":"2022-09-11","APOAPSIS":"540.543","PERIOD":"95.435","BSTAR":"0.00161700000000","MEAN_ELEMENT_THEORY":"SGP4","MEAN_MOTION_DOT":"0.00025569","CENTER_NAME":"EARTH","OBJECT_ID":"2022-111X","SITE":"AFETR","ARG_OF_PERICENTER":"94.9838","ELEMENT_SET_NO":"999","MEAN_MOTION":"15.08880844","MEAN_ANOMALY":"265.1306","RA_OF_ASC_NODE":"180.3924","COUNTRY_CODE":"US","REV_AT_EPOCH":"2734","OBJECT_NAME":"STARLINK-4730","FILE":"3850400","TLE_LINE2":"2 53794  53.2167 180.3924 0001333  94.9838 265.1306 15.08880844 27347","RCS_SIZE":"LARGE","CLASSIFICATION_TYPE":"U","MEAN_MOTION_DDOT":"0.0000000000000","OBJECT_TYPE":"PAYLOAD","TIME_SYSTEM":"UTC","INCLINATION":"53.2167","TLE_LINE1":"1 53794U 22111X   23062.81335202  .00025569  00000-0  16170-2 0  9996","DECAY_DATE":null,"ECCENTRICITY":"0.00013330"},{"MEAN_MOTION_DDOT":"0.0000000000000","CLASSIFICATION_TYPE":"U","TIME_SYSTEM":"UTC","OBJECT_TYPE":"PAYLOAD","ECCENTRICITY":"0.00012230","DECAY_DATE":null,"TLE_LINE1":"1 53795U 22111Y   23062.73973758  .00007568  00000-0  49258-3 0  9995","INCLINATION":"53.2175","COUNTRY_CODE":"US","RA_OF_ASC_NODE":"180.6428","MEAN_ANOMALY":"290.6628","REV_AT_EPOCH":"2733","TLE_LINE2":"2 53795  53.2175 180.6428 0001223  69.4495 290.6628 15.08878284 27337","RCS_SIZE":"LARGE","OBJECT_NAME":"STARLINK-4742","FILE":"3850400","OBJECT_ID":"2022-111Y","CENTER_NAME":"EARTH","MEAN_MOTION_DOT":"0.00007568","BSTAR":"0.00049258000000","MEAN_ELEMENT_THEORY":"SGP4","SITE":"AFETR","ELEMENT_SET_NO":"999","ARG_OF_PERICENTER":"69.4495","MEAN_MOTION":"15.08878284","PERIAPSIS":"538.782","NORAD_CAT_ID":"53795","SEMIMAJOR_AXIS":"6917.763","EPOCH":"2023-03-03T17:45:13.326912","GP_ID":"227437487","REF_FRAME":"TEME","EPHEMERIS_TYPE":"0","PERIOD":"95.435","APOAPSIS":"540.474","LAUNCH_DATE":"2022-09-11"},{"ARG_OF_PERICENTER":"66.8279","ELEMENT_SET_NO":"999","MEAN_MOTION":"15.08841324","BSTAR":"0.00028135000000","MEAN_ELEMENT_THEORY":"SGP4","MEAN_MOTION_DOT":"0.00004193","CENTER_NAME":"EARTH","OBJECT_ID":"2022-111Z","SITE":"AFETR","EPHEMERIS_TYPE":"0","REF_FRAME":"TEME","LAUNCH_DATE":"2022-09-11","APOAPSIS":"541.012","PERIOD":"95.437","PERIAPSIS":"538.471","GP_ID":"227405245","EPOCH":"2023-03-03T11:31:38.665632","SEMIMAJOR_AXIS":"6917.876","NORAD_CAT_ID":"53796","TLE_LINE1":"1 53796U 22111Z   23062.48030863  .00004193  00000-0  28135-3 0  9991","INCLINATION":"53.2170","DECAY_DATE":null,"ECCENTRICITY":"0.00018370","CLASSIFICATION_TYPE":"U","MEAN_MOTION_DDOT":"0.0000000000000","OBJECT_TYPE":"PAYLOAD","TIME_SYSTEM":"UTC","REV_AT_EPOCH":"2760","FILE":"3850163","OBJECT_NAME":"STARLINK-4721","TLE_LINE2":"2 53796  53.2170 161.7937 0001837  66.8279 293.2907 15.08841324 27604","RCS_SIZE":"LARGE","MEAN_ANOMALY":"293.2907","RA_OF_ASC_NODE":"161.7937","COUNTRY_CODE":"US"},{"EPHEMERIS_TYPE":"0","REF_FRAME":"TEME","LAUNCH_DATE":"2022-09-11","PERIOD":"95.434","APOAPSIS":"540.515","PERIAPSIS":"538.631","EPOCH":"2023-03-03T17:29:19.012992","GP_ID":"227436485","NORAD_CAT_ID":"53797","SEMIMAJOR_AXIS":"6917.708","ARG_OF_PERICENTER":"71.6927","ELEMENT_SET_NO":"999","MEAN_MOTION":"15.08896397","MEAN_MOTION_DOT":"0.00047758","BSTAR":"0.00299400000000","MEAN_ELEMENT_THEORY":"SGP4","OBJECT_ID":"2022-111AA","CENTER_NAME":"EARTH","SITE":"AFETR","REV_AT_EPOCH":"2732","FILE":"3850400","OBJECT_NAME":"STARLINK-4723","RCS_SIZE":"LARGE","TLE_LINE2":"2 53797  53.2162 180.5727 0001362  71.6927 288.4213 15.08896397 27324","RA_OF_ASC_NODE":"180.5727","MEAN_ANOMALY":"288.4213","COUNTRY_CODE":"US","DECAY_DATE":null,"INCLINATION":"53.2162","TLE_LINE1":"1 53797U 22111AA  23062.72869228  .00047758  00000-0  29940-2 0  9992","ECCENTRICITY":"0.00013620","MEAN_MOTION_DDOT":"0.0000000000000","CLASSIFICATION_TYPE":"U","TIME_SYSTEM":"UTC","OBJECT_TYPE":"PAYLOAD"},{"OBJECT_NAME":"STARLINK-4712","FILE":"3850400","RCS_SIZE":"LARGE","TLE_LINE2":"2 53798  53.2186 180.5955 0001448 103.0395 257.0759 15.08861205 27325","REV_AT_EPOCH":"2732","RA_OF_ASC_NODE":"180.5955","MEAN_ANOMALY":"257.0759","COUNTRY_CODE":"US","DECAY_DATE":null,"TLE_LINE1":"1 53798U 22111AB  23062.73236262  .00002918  00000-0  20123-3 0  9994","INCLINATION":"53.2186","ECCENTRICITY":"0.00014480","TIME_SYSTEM":"UTC","OBJECT_TYPE":"PAYLOAD","MEAN_MOTION_DDOT":"0.0000000000000","CLASSIFICATION_TYPE":"U","LAUNCH_DATE":"2022-09-11","PERIOD":"95.436","APOAPSIS":"540.682","EPHEMERIS_TYPE":"0","REF_FRAME":"TEME","EPOCH":"2023-03-03T17:34:36.130368","GP_ID":"227437237","NORAD_CAT_ID":"53798","SEMIMAJOR_AXIS":"6917.816","PERIAPSIS":"538.679","MEAN_MOTION":"15.08861205","ARG_OF_PERICENTER":"103.0395","ELEMENT_SET_NO":"999","SITE":"AFETR","MEAN_MOTION_DOT":"0.00002918","MEAN_ELEMENT_THEORY":"SGP4","BSTAR":"0.00020123000000","OBJECT_ID":"2022-111AB","CENTER_NAME":"EARTH"}];
